{
  "type": "FeatureCollection",
  "features": [
    {
      "type": "Feature",
      "properties": {
        "norad_id": 28051,
        "name": "IRS-P6 (RESOURCESAT-1)",
        "group": "resource",
        "lat": -6.94851024601563,
        "lon": -148.41419520873833,
        "alt_km": 732.942576827928,
        "timestamp": "2025-12-18T10:51:25.445596+00:00",
        "meta_object_name": "IRS-P6 (RESOURCESAT-1)",
        "meta_object_id": "2003-046A",
        "meta_epoch": "2025-12-18T00:14:42.429120",
        "meta_mean_motion": 14.36077277,
        "meta_eccentricity": 0.00644321,
        "meta_inclination": 98.2178,
        "meta_ra_of_asc_node": 32.1733,
        "meta_arg_of_pericenter": 164.9049,
        "meta_mean_anomaly": 257.0945,
        "meta_ephemeris_type": 0,
        "meta_classification_type": "U",
        "meta_norad_cat_id": 28051,
        "meta_element_set_no": 999,
        "meta_rev_at_epoch": 15452,
        "meta_bstar": 7.9755935e-05,
        "meta_mean_motion_dot": 1.97e-06,
        "meta_mean_motion_ddot": 0,
        "tle_line1": "1 28051U 03046A   25352.01021330  .00000197  00000+0  79756-4 0  9990",
        "tle_line2": "2 28051  98.2178  32.1733 0064432 164.9049 257.0945 14.36077277154527"
      },
      "geometry": {
        "type": "Point",
        "coordinates": [
          -148.41419520873833,
          -6.94851024601563
        ]
      }
    },
    {
      "type": "Feature",
      "properties": {
        "norad_id": 28220,
        "name": "SHIYAN-1 (SY-1)",
        "group": "resource",
        "lat": 27.24761829920676,
        "lon": -121.57402326427392,
        "alt_km": 483.07992877369816,
        "timestamp": "2025-12-18T10:51:25.445608+00:00",
        "meta_object_name": "SHIYAN-1 (SY-1)",
        "meta_object_id": "2004-012A",
        "meta_epoch": "2025-12-17T18:28:41.835360",
        "meta_mean_motion": 15.28274042,
        "meta_eccentricity": 0.00052861,
        "meta_inclination": 97.8936,
        "meta_ra_of_asc_node": 53.6058,
        "meta_arg_of_pericenter": 305.3708,
        "meta_mean_anomaly": 54.7036,
        "meta_ephemeris_type": 0,
        "meta_classification_type": "U",
        "meta_norad_cat_id": 28220,
        "meta_element_set_no": 999,
        "meta_rev_at_epoch": 18333,
        "meta_bstar": 0.00037812243,
        "meta_mean_motion_dot": 0.00010341,
        "meta_mean_motion_ddot": 0,
        "tle_line1": "1 28220U 04012A   25351.76992865  .00010341  00000+0  37812-3 0  9991",
        "tle_line2": "2 28220  97.8936  53.6058 0005286 305.3708  54.7036 15.28274042183330"
      },
      "geometry": {
        "type": "Point",
        "coordinates": [
          -121.57402326427392,
          27.24761829920676
        ]
      }
    },
    {
      "type": "Feature",
      "properties": {
        "norad_id": 28376,
        "name": "AURA",
        "group": "resource",
        "lat": -63.26322559780469,
        "lon": 105.82006732131931,
        "alt_km": 698.097921621832,
        "timestamp": "2025-12-18T10:51:25.445620+00:00",
        "meta_object_name": "AURA",
        "meta_object_id": "2004-026A",
        "meta_epoch": "2025-12-17T20:35:30.374016",
        "meta_mean_motion": 14.60958557,
        "meta_eccentricity": 0.00013244,
        "meta_inclination": 98.319,
        "meta_ra_of_asc_node": 302.1084,
        "meta_arg_of_pericenter": 93.2143,
        "meta_mean_anomaly": 266.9209,
        "meta_ephemeris_type": 0,
        "meta_classification_type": "U",
        "meta_norad_cat_id": 28376,
        "meta_element_set_no": 999,
        "meta_rev_at_epoch": 13973,
        "meta_bstar": 0.00018597862,
        "meta_mean_motion_dot": 8.63e-06,
        "meta_mean_motion_ddot": 0,
        "tle_line1": "1 28376U 04026A   25351.85799044  .00000863  00000+0  18598-3 0  9990",
        "tle_line2": "2 28376  98.3190 302.1084 0001324  93.2143 266.9209 14.60958557139735"
      },
      "geometry": {
        "type": "Point",
        "coordinates": [
          105.82006732131931,
          -63.26322559780469
        ]
      }
    },
    {
      "type": "Feature",
      "properties": {
        "norad_id": 28649,
        "name": "IRS-P5 (CARTOSAT-1)",
        "group": "resource",
        "lat": -17.887182404541722,
        "lon": 21.065467832369126,
        "alt_km": 601.3498138204841,
        "timestamp": "2025-12-18T10:51:25.445632+00:00",
        "meta_object_name": "IRS-P5 (CARTOSAT-1)",
        "meta_object_id": "2005-017A",
        "meta_epoch": "2025-12-17T15:36:08.940672",
        "meta_mean_motion": 14.90421465,
        "meta_eccentricity": 9.219e-05,
        "meta_inclination": 97.5489,
        "meta_ra_of_asc_node": 17.8458,
        "meta_arg_of_pericenter": 45.8305,
        "meta_mean_anomaly": 314.2989,
        "meta_ephemeris_type": 0,
        "meta_classification_type": "U",
        "meta_norad_cat_id": 28649,
        "meta_element_set_no": 999,
        "meta_rev_at_epoch": 11677,
        "meta_bstar": 0.00014028648,
        "meta_mean_motion_dot": 1.315e-05,
        "meta_mean_motion_ddot": 0,
        "tle_line1": "1 28649U 05017A   25351.65010348  .00001315  00000+0  14029-3 0  9993",
        "tle_line2": "2 28649  97.5489  17.8458 0000921  45.8305 314.2989 14.90421465116777"
      },
      "geometry": {
        "type": "Point",
        "coordinates": [
          21.065467832369126,
          -17.887182404541722
        ]
      }
    },
    {
      "type": "Feature",
      "properties": {
        "norad_id": 28893,
        "name": "SINAH 1",
        "group": "resource",
        "lat": 26.868896463107305,
        "lon": -54.75411265361994,
        "alt_km": 670.110181463936,
        "timestamp": "2025-12-18T10:51:25.445643+00:00",
        "meta_object_name": "SINAH 1",
        "meta_object_id": "2005-043D",
        "meta_epoch": "2025-12-17T19:23:58.758144",
        "meta_mean_motion": 14.63967963,
        "meta_eccentricity": 0.00155506,
        "meta_inclination": 98.2606,
        "meta_ra_of_asc_node": 120.3792,
        "meta_arg_of_pericenter": 122.1088,
        "meta_mean_anomaly": 238.1626,
        "meta_ephemeris_type": 0,
        "meta_classification_type": "U",
        "meta_norad_cat_id": 28893,
        "meta_element_set_no": 999,
        "meta_rev_at_epoch": 7398,
        "meta_bstar": 7.6862675e-05,
        "meta_mean_motion_dot": 3.54e-06,
        "meta_mean_motion_ddot": 0,
        "tle_line1": "1 28893U 05043D   25351.80831896  .00000354  00000+0  76863-4 0  9996",
        "tle_line2": "2 28893  98.2606 120.3792 0015550 122.1088 238.1626 14.63967963 73984"
      },
      "geometry": {
        "type": "Point",
        "coordinates": [
          -54.75411265361994,
          26.868896463107305
        ]
      }
    },
    {
      "type": "Feature",
      "properties": {
        "norad_id": 29079,
        "name": "EROS B",
        "group": "resource",
        "lat": 17.355600498728695,
        "lon": -68.38316229823046,
        "alt_km": 361.25606524098293,
        "timestamp": "2025-12-18T10:51:25.445655+00:00",
        "meta_object_name": "EROS B",
        "meta_object_id": "2006-014A",
        "meta_epoch": "2025-12-17T21:55:46.551936",
        "meta_mean_motion": 15.69881644,
        "meta_eccentricity": 0.00031654,
        "meta_inclination": 97.3462,
        "meta_ra_of_asc_node": 108.7404,
        "meta_arg_of_pericenter": 311.7245,
        "meta_mean_anomaly": 48.3746,
        "meta_ephemeris_type": 0,
        "meta_classification_type": "U",
        "meta_norad_cat_id": 29079,
        "meta_element_set_no": 999,
        "meta_rev_at_epoch": 9161,
        "meta_bstar": 0.0011573055,
        "meta_mean_motion_dot": 0.00140175,
        "meta_mean_motion_ddot": 0,
        "tle_line1": "1 29079U 06014A   25351.91373324  .00140175  00000+0  11573-2 0  9992",
        "tle_line2": "2 29079  97.3462 108.7404 0003165 311.7245  48.3746 15.69881644 91613"
      },
      "geometry": {
        "type": "Point",
        "coordinates": [
          -68.38316229823046,
          17.355600498728695
        ]
      }
    },
    {
      "type": "Feature",
      "properties": {
        "norad_id": 29228,
        "name": "RESURS-DK 1",
        "group": "resource",
        "lat": -3.2452398898754278,
        "lon": 85.88832239203695,
        "alt_km": 533.3746827230834,
        "timestamp": "2025-12-18T10:51:25.445666+00:00",
        "meta_object_name": "RESURS-DK 1",
        "meta_object_id": "2006-021A",
        "meta_epoch": "2025-12-17T17:24:33.145632",
        "meta_mean_motion": 15.12189204,
        "meta_eccentricity": 0.0006923,
        "meta_inclination": 69.9337,
        "meta_ra_of_asc_node": 88.9538,
        "meta_arg_of_pericenter": 255.5284,
        "meta_mean_anomaly": 104.5114,
        "meta_ephemeris_type": 0,
        "meta_classification_type": "U",
        "meta_norad_cat_id": 29228,
        "meta_element_set_no": 999,
        "meta_rev_at_epoch": 7513,
        "meta_bstar": 0.00013571917,
        "meta_mean_motion_dot": 2.242e-05,
        "meta_mean_motion_ddot": 0,
        "tle_line1": "1 29228U 06021A   25351.72538363  .00002242  00000+0  13572-3 0  9995",
        "tle_line2": "2 29228  69.9337  88.9538 0006923 255.5284 104.5114 15.12189204 75139"
      },
      "geometry": {
        "type": "Point",
        "coordinates": [
          85.88832239203695,
          -3.2452398898754278
        ]
      }
    }
  ]
}